{
  "type": "FeatureCollection",
  "features": [
    {
      "type": "Feature",
      "properties": {
        "norad_id": 33822,
        "name": "COSMOS 2251 DEB",
        "group": "cosmos-2251-debris",
        "lat": 66.21990768653849,
        "lon": -32.1115526050791,
        "alt_km": 906.0375705896004,
        "timestamp": "2025-12-15T19:00:45.751326+00:00",
        "meta_object_name": "COSMOS 2251 DEB",
        "meta_object_id": "1993-036BP",
        "meta_epoch": "2025-12-14T22:42:03.204288",
        "meta_mean_motion": 14.13081436,
        "meta_eccentricity": 0.01531413,
        "meta_inclination": 74.0692,
        "meta_ra_of_asc_node": 189.7877,
        "meta_arg_of_pericenter": 235.5925,
        "meta_mean_anomaly": 250.042,
        "meta_ephemeris_type": 0,
        "meta_classification_type": "U",
        "meta_norad_cat_id": 33822,
        "meta_element_set_no": 999,
        "meta_rev_at_epoch": 86085,
        "meta_bstar": 0.00099554907,
        "meta_mean_motion_dot": 2.054e-05,
        "meta_mean_motion_ddot": 0,
        "tle_line1": "1 33822U 93036BP  25348.94587042  .00002054  00000+0  99555-3 0  9996",
        "tle_line2": "2 33822  74.0692 189.7877 0153141 235.5925 250.0420 14.13081436860852"
      },
      "geometry": {
        "type": "Point",
        "coordinates": [
          -32.1115526050791,
          66.21990768653849
        ]
      }
    },
    {
      "type": "Feature",
      "properties": {
        "norad_id": 33823,
        "name": "COSMOS 2251 DEB",
        "group": "cosmos-2251-debris",
        "lat": 42.99574032448536,
        "lon": -51.73625987448811,
        "alt_km": 997.5027471227149,
        "timestamp": "2025-12-15T19:00:45.751336+00:00",
        "meta_object_name": "COSMOS 2251 DEB",
        "meta_object_id": "1993-036BQ",
        "meta_epoch": "2025-12-14T20:38:05.468064",
        "meta_mean_motion": 13.9895512,
        "meta_eccentricity": 0.02093271,
        "meta_inclination": 73.809,
        "meta_ra_of_asc_node": 145.6146,
        "meta_arg_of_pericenter": 270.4309,
        "meta_mean_anomaly": 211.942,
        "meta_ephemeris_type": 0,
        "meta_classification_type": "U",
        "meta_norad_cat_id": 33823,
        "meta_element_set_no": 999,
        "meta_rev_at_epoch": 85639,
        "meta_bstar": 0.00082109715,
        "meta_mean_motion_dot": 1.404e-05,
        "meta_mean_motion_ddot": 0,
        "tle_line1": "1 33823U 93036BQ  25348.85978551  .00001404  00000+0  82110-3 0  9993",
        "tle_line2": "2 33823  73.8090 145.6146 0209327 270.4309 211.9420 13.98955120856396"
      },
      "geometry": {
        "type": "Point",
        "coordinates": [
          -51.73625987448811,
          42.99574032448536
        ]
      }
    },
    {
      "type": "Feature",
      "properties": {
        "norad_id": 33825,
        "name": "COSMOS 2251 DEB",
        "group": "cosmos-2251-debris",
        "lat": -24.668185966065728,
        "lon": -150.56356347084667,
        "alt_km": 714.0523484573187,
        "timestamp": "2025-12-15T19:00:45.751349+00:00",
        "meta_object_name": "COSMOS 2251 DEB",
        "meta_object_id": "1993-036BS",
        "meta_epoch": "2025-12-14T13:21:45.805824",
        "meta_mean_motion": 14.69782187,
        "meta_eccentricity": 0.00846248,
        "meta_inclination": 73.9855,
        "meta_ra_of_asc_node": 24.2576,
        "meta_arg_of_pericenter": 350.8524,
        "meta_mean_anomaly": 161.1929,
        "meta_ephemeris_type": 0,
        "meta_classification_type": "U",
        "meta_norad_cat_id": 33825,
        "meta_element_set_no": 999,
        "meta_rev_at_epoch": 88906,
        "meta_bstar": 0.00067557979,
        "meta_mean_motion_dot": 4.227e-05,
        "meta_mean_motion_ddot": 0,
        "tle_line1": "1 33825U 93036BS  25348.55678016  .00004227  00000+0  67558-3 0  9990",
        "tle_line2": "2 33825  73.9855  24.2576 0084624 350.8524 161.1929 14.69782187889060"
      },
      "geometry": {
        "type": "Point",
        "coordinates": [
          -150.56356347084667,
          -24.668185966065728
        ]
      }
    },
    {
      "type": "Feature",
      "properties": {
        "norad_id": 33826,
        "name": "COSMOS 2251 DEB",
        "group": "cosmos-2251-debris",
        "lat": -70.1628594865889,
        "lon": -83.49370909378212,
        "alt_km": 784.926537043405,
        "timestamp": "2025-12-15T19:00:45.751361+00:00",
        "meta_object_name": "COSMOS 2251 DEB",
        "meta_object_id": "1993-036BT",
        "meta_epoch": "2025-12-14T20:52:06.178944",
        "meta_mean_motion": 14.51734153,
        "meta_eccentricity": 0.00828915,
        "meta_inclination": 74.0653,
        "meta_ra_of_asc_node": 45.872,
        "meta_arg_of_pericenter": 89.5136,
        "meta_mean_anomaly": 28.157,
        "meta_ephemeris_type": 0,
        "meta_classification_type": "U",
        "meta_norad_cat_id": 33826,
        "meta_element_set_no": 999,
        "meta_rev_at_epoch": 87800,
        "meta_bstar": 0.00059170315,
        "meta_mean_motion_dot": 2.458e-05,
        "meta_mean_motion_ddot": 0,
        "tle_line1": "1 33826U 93036BT  25348.86951596  .00002458  00000+0  59170-3 0  9997",
        "tle_line2": "2 33826  74.0653  45.8720 0082891  89.5136  28.1570 14.51734153878005"
      },
      "geometry": {
        "type": "Point",
        "coordinates": [
          -83.49370909378212,
          -70.1628594865889
        ]
      }
    },
    {
      "type": "Feature",
      "properties": {
        "norad_id": 33828,
        "name": "COSMOS 2251 DEB",
        "group": "cosmos-2251-debris",
        "lat": 67.23603709249903,
        "lon": -84.60976338226398,
        "alt_km": 750.3966109399707,
        "timestamp": "2025-12-15T19:00:45.751371+00:00",
        "meta_object_name": "COSMOS 2251 DEB",
        "meta_object_id": "1993-036BV",
        "meta_epoch": "2025-12-14T18:00:04.364064",
        "meta_mean_motion": 14.44340951,
        "meta_eccentricity": 0.00294746,
        "meta_inclination": 74.0467,
        "meta_ra_of_asc_node": 234.3519,
        "meta_arg_of_pericenter": 306.9856,
        "meta_mean_anomaly": 109.7574,
        "meta_ephemeris_type": 0,
        "meta_classification_type": "U",
        "meta_norad_cat_id": 33828,
        "meta_element_set_no": 999,
        "meta_rev_at_epoch": 88342,
        "meta_bstar": 0.00046203186,
        "meta_mean_motion_dot": 1.572e-05,
        "meta_mean_motion_ddot": 0,
        "tle_line1": "1 33828U 93036BV  25348.75005051  .00001572  00000+0  46203-3 0  9992",
        "tle_line2": "2 33828  74.0467 234.3519 0029474 306.9856 109.7574 14.44340951883427"
      },
      "geometry": {
        "type": "Point",
        "coordinates": [
          -84.60976338226398,
          67.23603709249903
        ]
      }
    },
    {
      "type": "Feature",
      "properties": {
        "norad_id": 33830,
        "name": "COSMOS 2251 DEB",
        "group": "cosmos-2251-debris",
        "lat": -51.40986924400172,
        "lon": -156.64486092626353,
        "alt_km": 622.1134572873798,
        "timestamp": "2025-12-15T19:00:45.751382+00:00",
        "meta_object_name": "COSMOS 2251 DEB",
        "meta_object_id": "1993-036BX",
        "meta_epoch": "2025-12-14T22:11:09.464640",
        "meta_mean_motion": 14.76928648,
        "meta_eccentricity": 0.00424297,
        "meta_inclination": 74.0322,
        "meta_ra_of_asc_node": 226.0827,
        "meta_arg_of_pericenter": 345.6568,
        "meta_mean_anomaly": 28.2948,
        "meta_ephemeris_type": 0,
        "meta_classification_type": "U",
        "meta_norad_cat_id": 33830,
        "meta_element_set_no": 999,
        "meta_rev_at_epoch": 89504,
        "meta_bstar": 0.00056037636,
        "meta_mean_motion_dot": 3.969e-05,
        "meta_mean_motion_ddot": 0,
        "tle_line1": "1 33830U 93036BX  25348.92441510  .00003969  00000+0  56038-3 0  9997",
        "tle_line2": "2 33830  74.0322 226.0827 0042429 345.6568  28.2948 14.76928648895046"
      },
      "geometry": {
        "type": "Point",
        "coordinates": [
          -156.64486092626353,
          -51.40986924400172
        ]
      }
    },
    {
      "type": "Feature",
      "properties": {
        "norad_id": 33832,
        "name": "COSMOS 2251 DEB",
        "group": "cosmos-2251-debris",
        "lat": 2.273426183552891,
        "lon": 23.500756603181056,
        "alt_km": 683.7750292804194,
        "timestamp": "2025-12-15T19:00:45.751392+00:00",
        "meta_object_name": "COSMOS 2251 DEB",
        "meta_object_id": "1993-036BZ",
        "meta_epoch": "2025-12-14T16:12:43.691616",
        "meta_mean_motion": 14.6067627,
        "meta_eccentricity": 0.00246759,
        "meta_inclination": 74.0542,
        "meta_ra_of_asc_node": 206.281,
        "meta_arg_of_pericenter": 236.9724,
        "meta_mean_anomaly": 191.1373,
        "meta_ephemeris_type": 0,
        "meta_classification_type": "U",
        "meta_norad_cat_id": 33832,
        "meta_element_set_no": 999,
        "meta_rev_at_epoch": 88453,
        "meta_bstar": 0.00098850186,
        "meta_mean_motion_dot": 4.808e-05,
        "meta_mean_motion_ddot": 0,
        "tle_line1": "1 33832U 93036BZ  25348.67550569  .00004808  00000+0  98850-3 0  9997",
        "tle_line2": "2 33832  74.0542 206.2810 0024675 236.9724 191.1373 14.60676270884531"
      },
      "geometry": {
        "type": "Point",
        "coordinates": [
          23.500756603181056,
          2.273426183552891
        ]
      }
    }
  ]
}